OBJECT_NAME,OBJECT_ID,EPOCH,MEAN_MOTION,ECCENTRICITY,INCLINATION,RA_OF_ASC_NODE,ARG_OF_PERICENTER,MEAN_ANOMALY,EPHEMERIS_TYPE,CLASSIFICATION_TYPE,NORAD_CAT_ID,ELEMENT_SET_NO,REV_AT_EPOCH,BSTAR,MEAN_MOTION_DOT,MEAN_MOTION_DDOT
PROBA-1,2001-049B,2026-07-15T14:39:50.598720,15.07617172,.00557722,97.9599,206.1376,28.4548,331.9704,0,U,26958,999,34790,.80448073E-4,.1196E-4,0
CUTE-1 (CO-55),2003-031E,2026-07-15T11:41:55.959936,14.24351670,.00108365,98.6744,204.6909,101.9513,258.2882,0,U,27844,999,19570,.76487103E-4,.133E-5,0
CUBESAT XI-IV (CO-57),2003-031J,2026-07-15T11:45:47.733120,14.23634657,.0010557,98.6774,204.3834,118.6468,241.5773,0,U,27848,999,19540,.68039381E-4,.112E-5,0
APRIZESAT 4,2009-041D,2026-07-15T04:09:49.259520,14.83913710,.00422295,98.1404,272.0508,229.5978,130.1548,0,U,35684,999,91551,.45241333E-4,.322E-5,0
APRIZESAT 3,2009-041F,2026-07-15T09:16:13.024704,14.96311283,.00607958,98.2100,350.9673,335.2868,24.5441,0,U,35686,999,92059,.77857316E-4,.843E-5,0
PROBA-2,2009-059B,2026-07-15T12:10:17.164704,14.54873733,.00130491,98.2459,19.4686,187.7669,172.3328,0,U,36037,999,88564,.2503933E-4,.62E-6,0
APRIZESAT 5,2011-044E,2026-07-15T09:09:19.827072,14.81127733,.00506953,98.2449,130.2223,272.0902,87.4504,0,U,37792,999,80296,.55946529E-4,.384E-5,0
APRIZESAT 6,2011-044F,2026-07-15T08:10:34.485888,14.76956881,.00430427,98.2338,107.4128,357.8013,119.3307,0,U,37793,999,80130,.57568561E-4,.355E-5,0
PROBA-V,2013-021A,2026-07-15T10:39:07.515936,14.23603418,.00052435,98.3606,173.6583,59.4292,300.7405,0,U,39159,999,68513,.24636672E-4,.15E-6,0
APRIZESAT 7,2013-066A,2026-07-15T09:30:45.698400,14.91619358,.00372335,97.7723,149.2138,116.6706,243.8333,0,U,39416,999,68543,.53501289E-4,.486E-5,0
APRIZESAT 8,2013-066K,2026-07-15T09:22:47.199648,14.87696635,.00455057,97.8230,143.4679,191.2271,168.7935,0,U,39425,999,68386,.44708869E-4,.357E-5,0
BUGSAT-1 (TITA),2014-033E,2026-07-15T14:54:18.394272,15.15883791,.00290656,98.0437,290.8389,84.5787,275.8758,0,U,40014,999,66014,.19034803E-3,.3605E-4,0
SAUDISAT 4,2014-033G,2026-07-15T09:18:10.191744,14.79575661,.00442455,97.7617,341.5528,343.4405,16.5359,0,U,40016,999,65024,.35387269E-4,.216E-5,0
APRIZESAT 9,2014-033J,2026-07-15T07:22:19.852608,14.74252703,.00674439,97.9094,328.8236,109.5826,251.2681,0,U,40018,999,64770,.53331158E-4,.313E-5,0
APRIZESAT 10,2014-033K,2026-07-15T06:57:26.254080,14.70910931,.00787404,97.9681,322.6275,183.0451,177.0287,0,U,40019,999,64638,.52396648E-4,.283E-5,0
TECHDEMOSAT-1 (TDS-1),2014-037H,2026-07-15T12:30:14.659200,15.13682940,.00069519,98.3826,191.5527,157.6401,202.5132,0,U,40076,999,65251,.24736015E-3,.4375E-4,0
TECHNOSAT,2017-042E,2026-07-15T10:32:09.301920,15.05111872,.00174081,97.4317,353.0287,2.7340,357.3979,0,U,42829,999,49095,.1204867E-3,.166E-4,0
FLYING LAPTOP,2017-042G,2026-07-15T13:55:09.280992,15.01314628,.00196884,97.4803,351.0446,31.3072,328.9321,0,U,42831,999,49071,.16176772E-3,.2032E-4,0
HAWK-A,2018-099H,2026-07-15T02:34:20.955936,15.24964443,.00347141,97.3897,247.9822,184.2471,175.8478,0,U,43765,999,41735,.16247125E-3,.4044E-4,0
HAWK-B,2018-099AN,2026-07-15T02:19:02.177472,15.23114243,.00313521,97.3948,247.3278,202.4031,157.5838,0,U,43794,999,41728,.1485969E-3,.348E-4,0
HAWK-C,2018-099AT,2026-07-15T14:37:14.837664,15.28495188,.00403408,97.3873,249.5313,182.3474,177.7583,0,U,43799,999,41825,.17709264E-3,.4952E-4,0
SALSAT,2020-068K,2026-07-15T11:08:34.478880,15.30174422,.00092137,97.8855,201.2595,191.9024,168.1999,0,U,46495,999,31968,.14152956E-3,.4051E-4,0
HAWK-2C,2021-006CT,2026-07-15T04:28:42.994272,15.34988982,.0008659,97.2265,239.9414,100.8071,259.4148,0,U,47502,999,30379,.11191816E-3,.3724E-4,0
HAWK-2A,2021-006CW,2026-07-15T04:31:55.075296,15.35006119,.00081724,97.2308,240.6375,104.1808,256.0344,0,U,47505,999,30379,.12886919E-3,.4302E-4,0
HAWK-2B,2021-006CZ,2026-07-15T12:11:54.646368,15.35139410,.0008754,97.2176,239.2384,101.6650,258.5577,0,U,47508,999,30384,.1340158E-3,.4497E-4,0
HAWK-3B,2021-059BE,2026-07-15T13:06:01.361376,15.71890222,.0004548,97.6631,35.9858,196.9727,163.1384,0,U,48931,999,28230,.2611788E-3,.33868E-3,0
HAWK-3C,2021-059BX,2026-07-15T13:05:34.040832,15.71888957,.00046693,97.6743,41.7196,197.3571,162.7532,0,U,48948,999,28230,.26040899E-3,.33766E-3,0
HAWK-3A,2021-059CG,2026-07-15T13:05:24.322560,15.71890745,.00046309,97.6689,38.9016,199.6457,160.4628,0,U,48957,999,28230,.26467405E-3,.34326E-3,0
HAWK-5C,2022-057Y,2026-07-15T13:03:43.871328,15.52334270,.00027786,97.6615,358.0647,345.3366,14.7804,0,U,52754,999,23074,.19952336E-3,.12046E-3,0
HAWK-5B,2022-057AA,2026-07-15T13:03:28.039392,15.52330698,.00034367,97.6628,356.4182,330.7260,29.3799,0,U,52756,999,23074,.19421388E-3,.11722E-3,0
